NORAD_CAT_ID,OBJECT_NAME,OBJECT_TYPE,EPOCH,MEAN_MOTION,ECCENTRICITY,INCLINATION,RA_OF_ASC_NODE,ARG_OF_PERICENTER,MEAN_ANOMALY,BSTAR,MEAN_MOTION_DOT,MEAN_MOTION_DDOT,TLE_LINE0,TLE_LINE1,TLE_LINE2,SEMIMAJOR_AXIS,PERIOD,APOGEE,PERIGEE,DECAYED
51468.0,STARLINK-3174,PAYLOAD,2023-06-02 15:50:50,15.08835728,0.0001069,53.216,137.8182,80.8612,279.2501,4.9433e-06,-2.09e-06,0.0,0 STARLINK-3174,1 51468U 22010N   23153.66031072 -.00000209  00000-0  49433-5 0  9998,2 51468  53.2160 137.8182 0001069  80.8612 279.2501 15.08835728 73883,6917.893,95.438,540.498,539.019,0.0
51468.0,STARLINK-3174,PAYLOAD,2023-06-03 09:20:05,15.08837311,0.0001062,53.2157,134.5485,92.3411,267.7703,1.3973e-05,-6.5e-07,0.0,0 STARLINK-3174,1 51468U 22010N   23154.38895099 -.00000065  00000-0  13973-4 0  9994,2 51468  53.2157 134.5485 0001062  92.3411 267.7703 15.08837311 74806,6917.889,95.438,540.488,539.019,0.0
51468.0,STARLINK-3174,PAYLOAD,2023-06-03 15:41:38,15.08834776,0.0001075,53.2157,133.3583,87.9712,272.1403,9.3403e-06,-1.39e-06,0.0,0 STARLINK-3174,1 51468U 22010N   23154.65391332 -.00000139  00000-0  93403-5 0  9994,2 51468  53.2157 133.3583 0001075  87.9712 272.1403 15.08834776 74034,6917.896,95.438,540.505,539.018,0.0
51468.0,STARLINK-3174,PAYLOAD,2023-06-04 06:00:06,15.08836707,0.0001097,53.2164,130.6801,86.1604,273.9514,3.8598e-05,3.26e-06,0.0,0 STARLINK-3174,1 51468U 22010N   23155.25007303  .00000326  00000-0  38598-4 0  9993,2 51468  53.2164 130.6801 0001097  86.1604 273.9514 15.08836707 74128,6917.89,95.438,540.514,538.997,0.0
51468.0,STARLINK-3174,PAYLOAD,2023-06-04 15:32:25,15.08835225,0.0001194,53.217,128.8961,84.9756,275.1372,3.9849e-05,3.46e-06,0.0,0 STARLINK-3174,1 51468U 22010N   23155.64751510  .00000346  00000-0  39849-4 0  9994,2 51468  53.2170 128.8961 0001194  84.9756 275.1372 15.08835225 74998,6917.895,95.438,540.586,538.934,0.0
51468.0,STARLINK-3174,PAYLOAD,2023-06-04 21:53:57,15.08835099,0.0001193,53.2168,127.7068,85.231,274.8818,3.2913e-05,2.36e-06,0.0,0 STARLINK-3174,1 51468U 22010N   23155.91247617  .00000236  00000-0  32913-4 0  9995,2 51468  53.2168 127.7068 0001193  85.2310 274.8818 15.08835099 74226,6917.895,95.438,540.586,538.935,0.0
51468.0,STARLINK-3174,PAYLOAD,2023-06-05 07:26:16,15.08839642,0.0001182,53.2164,125.9227,84.8138,275.2989,5.9125e-05,6.53e-06,0.0,0 STARLINK-3174,1 51468U 22010N   23156.30991282  .00000653  00000-0  59125-4 0  9990,2 51468  53.2164 125.9227 0001182  84.8138 275.2989 15.08839642 74288,6917.881,95.438,540.564,538.929,0.0
51468.0,STARLINK-3174,PAYLOAD,2023-06-05 21:44:44,15.08837632,0.0001168,53.2162,123.2468,84.615,275.4976,5.3303e-05,5.61e-06,0.0,0 STARLINK-3174,1 51468U 22010N   23156.90607456  .00000561  00000-0  53303-4 0  9993,2 51468  53.2162 123.2468 0001168  84.6150 275.4976 15.08837632 74375,6917.888,95.438,540.561,538.945,0.0
51468.0,STARLINK-3174,PAYLOAD,2023-06-06 02:30:54,15.08840245,0.0001179,53.2161,122.355,83.4072,276.7054,5.2475e-05,5.47e-06,0.0,0 STARLINK-3174,1 51468U 22010N   23157.10479306  .00000547  00000-0  52475-4 0  9990,2 51468  53.2161 122.3550 0001179  83.4072 276.7054 15.08840245 75217,6917.88,95.438,540.56,538.929,0.0
51468.0,STARLINK-3174,PAYLOAD,2023-06-06 07:17:03,15.08842665,0.0001191,53.216,121.4627,84.0175,276.0953,6.8988e-05,8.1e-06,0.0,0 STARLINK-3174,1 51468U 22010N   23157.30351076  .00000810  00000-0  68988-4 0  9994,2 51468  53.2160 121.4627 0001191  84.0175 276.0953 15.08842665 74438,6917.872,95.437,540.561,538.913,0.0
51468.0,STARLINK-3174,PAYLOAD,2023-06-06 21:35:32,15.08831547,0.0001147,53.2156,118.7854,91.4375,268.6748,8.7868e-05,1.111e-05,0.0,0 STARLINK-3174,1 51468U 22010N   23157.89967700  .00001111  00000-0  87868-4 0  9998,2 51468  53.2156 118.7854 0001147  91.4375 268.6748 15.08831547 74525,6917.906,95.438,540.565,538.978,0.0
51468.0,STARLINK-3174,PAYLOAD,2023-06-07 00:46:18,15.08812721,0.0001134,53.2161,118.191,97.5984,262.5137,0.00029461,4.401e-05,0.0,0 STARLINK-3174,1 51468U 22010N   23158.03216344  .00004401  00000-0  29461-3 0  9995,2 51468  53.2161 118.1910 0001134  97.5984 262.5137 15.08812721 75357,6917.964,95.439,540.613,539.044,0.0
51468.0,STARLINK-3174,PAYLOAD,2023-06-07 07:07:50,15.08839707,0.0001288,53.2161,117.0011,95.7926,264.3213,2.2889e-05,7.6e-07,0.0,0 STARLINK-3174,1 51468U 22010N   23158.29711407  .00000076  00000-0  22889-4 0  9995,2 51468  53.2161 117.0011 0001288  95.7926 264.3213 15.08839707 75395,6917.881,95.438,540.637,538.855,0.0
51468.0,STARLINK-3174,PAYLOAD,2023-06-07 21:26:19,15.08834018,0.0001306,53.2161,114.3238,103.191,256.9228,-2.335e-05,-6.59e-06,0.0,0 STARLINK-3174,1 51468U 22010N   23158.89328001 -.00000659  00000-0 -23350-4 0  9998,2 51468  53.2161 114.3238 0001306 103.1910 256.9228 15.08834018 74677,6917.899,95.438,540.667,538.86,0.0
51468.0,STARLINK-3174,PAYLOAD,2023-06-08 06:58:38,15.08838284,0.0001168,53.2161,112.5422,84.8288,275.2837,-6.9265e-06,-3.98e-06,0.0,0 STARLINK-3174,1 51468U 22010N   23159.29071830 -.00000398  00000-0 -69265-5 0  9994,2 51468  53.2161 112.5422 0001168  84.8288 275.2837 15.08838284 74737,6917.886,95.438,540.559,538.943,0.0
51468.0,STARLINK-3174,PAYLOAD,2023-06-08 22:52:29,15.08838604,0.0001305,53.2173,109.5678,93.1137,267.0005,4.894e-05,4.91e-06,0.0,0 STARLINK-3174,1 51468U 22010N   23159.95311744  .00000491  00000-0  48940-4 0  9996,2 51468  53.2173 109.5678 0001305  93.1137 267.0005 15.08838604 75641,6917.885,95.438,540.652,538.847,0.0
51468.0,STARLINK-3174,PAYLOAD,2023-06-09 02:03:15,15.0884395,0.0001392,53.216,108.9729,105.4126,254.702,8.2327e-05,1.023e-05,0.0,0 STARLINK-3174,1 51468U 22010N   23160.08559202  .00001023  00000-0  82327-4 0  9994,2 51468  53.2160 108.9729 0001392 105.4126 254.7020 15.08843950 75660,6917.868,95.437,540.696,538.77,0.0
51468.0,STARLINK-3174,PAYLOAD,2023-06-09 13:10:57,15.08842539,0.0001178,53.2161,106.8917,84.8047,275.3079,2.6548e-05,1.35e-06,0.0,0 STARLINK-3174,1 51468U 22010N   23160.54927449  .00000135  00000-0  26548-4 0  9993,2 51468  53.2161 106.8917 0001178  84.8047 275.3079 15.08842539 74924,6917.873,95.437,540.553,538.923,0.0
51468.0,STARLINK-3174,PAYLOAD,2023-06-10 03:29:26,15.08826945,0.0001205,53.216,104.2162,88.7475,271.3656,6.2932e-05,7.14e-06,0.0,0 STARLINK-3174,1 51468U 22010N   23161.14544579  .00000714  00000-0  62932-4 0  9999,2 51468  53.2160 104.2162 0001205  88.7475 271.3656 15.08826945 75826,6917.92,95.438,540.619,538.952,0.0
51468.0,STARLINK-3174,PAYLOAD,2023-06-10 13:01:43,15.08883519,0.0001416,53.2174,102.4337,94.4319,265.6835,-0.00061505,-0.00010075,0.0,0 STARLINK-3174,1 51468U 22010N   23161.54287027 -.00010075  00000-0 -61505-3 0  9992,2 51468  53.2174 102.4337 0001416  94.4319 265.6835 15.08883519 75072,6917.747,95.435,540.592,538.633,0.0
51468.0,STARLINK-3174,PAYLOAD,2023-06-11 06:30:59,15.08837872,0.0001145,53.2163,99.1612,100.0058,260.1063,2.5598e-05,1.2e-06,0.0,0 STARLINK-3174,1 51468U 22010N   23162.27152194  .00000120  00000-0  25598-4 0  9990,2 51468  53.2163  99.1612 0001145 100.0058 260.1063 15.08837872 75996,6917.887,95.438,540.544,538.96,0.0
51468.0,STARLINK-3174,PAYLOAD,2023-06-11 19:14:04,15.08835252,0.0001131,53.2169,96.7823,87.6177,272.4945,7.8406e-05,9.6e-06,0.0,0 STARLINK-3174,1 51468U 22010N   23162.80144240  .00000960  00000-0  78406-4 0  9990,2 51468  53.2169  96.7823 0001131  87.6177 272.4945 15.08835252 75261,6917.895,95.438,540.542,538.977,0.0
51468.0,STARLINK-3174,PAYLOAD,2023-06-12 01:35:37,15.08840289,0.0001119,53.2169,95.5928,87.7835,272.3286,6.0042e-05,6.68e-06,0.0,0 STARLINK-3174,1 51468U 22010N   23163.06640049  .00000668  00000-0  60042-4 0  9999,2 51468  53.2169  95.5928 0001119  87.7835 272.3286 15.08840289 75300,6917.88,95.438,540.519,538.97,0.0
51468.0,STARLINK-3174,PAYLOAD,2023-06-12 03:10:59,15.0884299,0.000113,53.217,95.2954,87.668,272.4441,8.0801e-05,9.98e-06,0.0,0 STARLINK-3174,1 51468U 22010N   23163.13263812  .00000998  00000-0  80801-4 0  9997,2 51468  53.2170  95.2954 0001130  87.6680 272.4441 15.08842990 76124,6917.871,95.437,540.518,538.955,0.0
51468.0,STARLINK-3174,PAYLOAD,2023-06-13 01:26:24,15.088354,0.0001193,53.2177,91.1339,81.9452,278.1675,3.7069e-05,3.02e-06,0.0,0 STARLINK-3174,1 51468U 22010N   23164.06000581  .00000302  00000-0  37069-4 0  9999,2 51468  53.2177  91.1339 0001193  81.9452 278.1675 15.08835400 76261,6917.894,95.438,540.585,538.934,0.0
51468.0,STARLINK-3174,PAYLOAD,2023-06-13 18:55:38,15.08837369,0.0001211,53.2179,87.8614,95.1277,264.9854,2.2614e-05,7.2e-07,0.0,0 STARLINK-3174,1 51468U 22010N   23164.78864568  .00000072  00000-0  22614-4 0  9995,2 51468  53.2179  87.8614 0001211  95.1277 264.9854 15.08837369 75564,6917.888,95.438,540.591,538.916,0.0
51468.0,STARLINK-3174,PAYLOAD,2023-06-14 04:27:57,15.08845791,0.0001058,53.2169,86.0757,95.8589,264.2524,2.7917e-05,1.57e-06,0.0,0 STARLINK-3174,1 51468U 22010N   23165.18607970  .00000157  00000-0  27917-4 0  9997,2 51468  53.2169  86.0757 0001058  95.8589 264.2524 15.08845791 76436,6917.863,95.437,540.46,538.996,0.0
51468.0,STARLINK-3174,PAYLOAD,2023-06-14 18:46:25,15.08841056,0.000129,53.2185,83.4019,92.0293,268.0846,1.2354e-05,-9.1e-07,0.0,0 STARLINK-3174,1 51468U 22010N   23165.78224480 -.00000091  00000-0  12354-4 0  9991,2 51468  53.2185  83.4019 0001290  92.0293 268.0846 15.08841056 76524,6917.877,95.437,540.635,538.85,0.0
51468.0,STARLINK-3174,PAYLOAD,2023-06-15 04:18:44,15.0884082,0.0001305,53.2182,81.617,94.8552,265.2589,5.8358e-05,6.41e-06,0.0,0 STARLINK-3174,1 51468U 22010N   23166.17968251  .00000641  00000-0  58358-4 0  9990,2 51468  53.2182  81.6170 0001305  94.8552 265.2589 15.08840820 75771,6917.878,95.438,540.646,538.84,0.0
51468.0,STARLINK-3174,PAYLOAD,2023-06-15 23:23:22,15.08839494,0.0001125,53.2171,78.0469,93.084,267.0281,-5.5356e-06,-3.76e-06,0.0,0 STARLINK-3174,1 51468U 22010N   23166.97456619 -.00000376  00000-0 -55356-5 0  9991,2 51468  53.2171  78.0469 0001125  93.0840 267.0281 15.08839494 76709,6917.882,95.438,540.525,538.969,0.0
